{
  "type": "FeatureCollection",
  "features": [
    {
      "type": "Feature",
      "properties": {
        "norad_id": 54259,
        "name": "EUTELSAT 10B",
        "group": "eutelsat",
        "lat": 0.05347178003723585,
        "lon": -175.5570896094354,
        "alt_km": 35789.70233139558,
        "timestamp": "2025-12-20T05:41:49.689846+00:00",
        "meta_object_name": "EUTELSAT 10B",
        "meta_object_id": "2022-157A",
        "meta_epoch": "2025-12-19T03:02:18.037824",
        "meta_mean_motion": 1.00249724,
        "meta_eccentricity": 0.000237,
        "meta_inclination": 0.0621,
        "meta_ra_of_asc_node": 98.3483,
        "meta_arg_of_pericenter": 10.4873,
        "meta_mean_anomaly": 34.7012,
        "meta_ephemeris_type": 0,
        "meta_classification_type": "U",
        "meta_norad_cat_id": 54259,
        "meta_element_set_no": 999,
        "meta_rev_at_epoch": 1122,
        "meta_bstar": 0,
        "meta_mean_motion_dot": 9e-07,
        "meta_mean_motion_ddot": 0,
        "tle_line1": "1 54259U 22157A   25353.12659766  .00000090  00000+0  00000+0 0  9999",
        "tle_line2": "2 54259   0.0621  98.3483 0002370  10.4873  34.7012  1.00249724 11228"
      },
      "geometry": {
        "type": "Point",
        "coordinates": [
          -175.5570896094354,
          0.05347178003723585
        ]
      }
    },
    {
      "type": "Feature",
      "properties": {
        "norad_id": 59346,
        "name": "EUTELSAT 36D",
        "group": "eutelsat",
        "lat": -0.015935861178037483,
        "lon": -149.64126083820975,
        "alt_km": 35789.06948015033,
        "timestamp": "2025-12-20T05:41:49.689857+00:00",
        "meta_object_name": "EUTELSAT 36D",
        "meta_object_id": "2024-059A",
        "meta_epoch": "2025-12-19T19:44:38.802912",
        "meta_mean_motion": 1.00270892,
        "meta_eccentricity": 7.164e-05,
        "meta_inclination": 0.0256,
        "meta_ra_of_asc_node": 21.4578,
        "meta_arg_of_pericenter": 346.9459,
        "meta_mean_anomaly": 52.265,
        "meta_ephemeris_type": 0,
        "meta_classification_type": "U",
        "meta_norad_cat_id": 59346,
        "meta_element_set_no": 999,
        "meta_rev_at_epoch": 634,
        "meta_bstar": 0,
        "meta_mean_motion_dot": 0,
        "meta_mean_motion_ddot": 0,
        "tle_line1": "1 59346U 24059A   25353.82267133  .00000000  00000+0  00000+0 0  9995",
        "tle_line2": "2 59346   0.0256  21.4578 0000716 346.9459  52.2650  1.00270892  6345"
      },
      "geometry": {
        "type": "Point",
        "coordinates": [
          -149.64126083820975,
          -0.015935861178037483
        ]
      }
    }
  ]
}